{"type":"FeatureCollection","features":[{"type":"Feature","properties":{"note":"Chinese claim (Taiwan)"},"geometry":{"type":"LineString","coordinates":[[121.8383,21.7247],[121.0818,20.8783]]}},{"type":"Feature","properties":{"note":"Chinese claim (Scarborough Reef)"},"geometry":{"type":"LineString","coordinates":[[119.834,18.8138],[119.7092,18.6043],[119.5683,18.3119],[119.4817,18.0848],[119.391,17.7747]]}},{"type":"Feature","properties":{"note":"Chinese claim (Spratly Is.)"},"geometry":{"type":"LineString","coordinates":[[112.6985,3.6691],[112.4658,3.5613],[112.1389,3.4612],[111.8009,3.4088],[111.5445,3.4023]]}},{"type":"Feature","properties":{"note":"Chinese claim (Spratly Is.)"},"geometry":{"type":"LineString","coordinates":[[108.4319,7.3673],[108.3493,7.1227],[108.3039,6.7812],[108.3255,6.4369],[108.3899,6.1859]]}},{"type":"Feature","properties":{"note":"Chinese claim (Spratly Is.)"},"geometry":{"type":"LineString","coordinates":[[110.3973,12.6243],[110.3663,12.3768],[110.2917,12.052],[110.214,11.814],[110.0868,11.504]]}},{"type":"Feature","properties":{"note":"Chinese claim (Paracel Is.)"},"geometry":{"type":"LineString","coordinates":[[109.3164,16.5868],[109.869,15.5759]]}},{"type":"Feature","properties":{"note":"Chinese claim (Spratly Is.)"},"geometry":{"type":"LineString","coordinates":[[116.5097,8.118],[115.6784,7.2789]]}},{"type":"Feature","properties":{"note":"Chinese claim (Spratly Is.)"},"geometry":{"type":"LineString","coordinates":[[119.0396,12.362],[118.5891,11.2848]]}},{"type":"Feature","properties":{"note":"Chinese claim (Scarborough Reef)"},"geometry":{"type":"LineString","coordinates":[[119.0248,15.8983],[119.0107,14.7507]]}}]}